{"type": "FeatureCollection", "features": [ {"type": "Feature", "properties": {"norad_id": 67070, "name": "DEAR-5", "group": "last-30-days", "lat": 38.33112736706952, "lon": 84.59442031129723, "alt_km": 503.1136420692219, "timestamp": "2025-12-26T22:28:04.501122+00:00", "meta": {"OBJECT_NAME": "DEAR-5", "OBJECT_ID": "2025-296B", "EPOCH": "2025-12-26T17:25:14.835360", "MEAN_MOTION": 15.16897231, "ECCENTRICITY": 0.0016586, "INCLINATION": 41.3552, "RA_OF_ASC_NODE": 21.7885, "ARG_OF_PERICENTER": 127.8612, "MEAN_ANOMALY": 232.3712, "EPHEMERIS_TYPE": 0, "CLASSIFICATION_TYPE": "U", "NORAD_CAT_ID": 67070, "ELEMENT_SET_NO": 999, "REV_AT_EPOCH": 207, "BSTAR": 0.00032483, "MEAN_MOTION_DOT": 6.345e-05, "MEAN_MOTION_DDOT": 0}, "tle": {"line1": "1 67070U 25296B   25360.72586615  .00006345  00000+0  32483-3 0  9990", "line2": "2 67070  41.3552  21.7885 0016586 127.8612 232.3712 15.16897231  2078"}}, "geometry": {"type": "Point", "coordinates": [84.59442031129723, 38.33112736706952]}}, {"type": "Feature", "properties": {"norad_id": 67071, "name": "KZ-11 R/B", "group": "last-30-days", "lat": -37.87025816420081, "lon": -42.20627451267306, "alt_km": 239.48625446976166, "timestamp": "2025-12-26T22:28:04.501154+00:00", "meta": {"OBJECT_NAME": "KZ-11 R/B", "OBJECT_ID": "2025-296C", "EPOCH": "2025-12-24T07:54:11.602080", "MEAN_MOTION": 15.73894626, "ECCENTRICITY": 0.03315074, "INCLINATION": 41.3001, "RA_OF_ASC_NODE": 37.0775, "ARG_OF_PERICENTER": 35.4688, "MEAN_ANOMALY": 326.7718, "EPHEMERIS_TYPE": 0, "CLASSIFICATION_TYPE": "U", "NORAD_CAT_ID": 67071, "ELEMENT_SET_NO": 999, "REV_AT_EPOCH": 169, "BSTAR": 0.00038975112, "MEAN_MOTION_DOT": 0.10609436, "MEAN_MOTION_DDOT": 7.766669e-06}, "tle": {"line1": "1 67071U 25296C   25358.32930095  .10609436  77667-5  38975-3 0  9991", "line2": "2 67071  41.3001  37.0775 0331507  35.4688 326.7718 15.73894626  1695"}}, "geometry": {"type": "Point", "coordinates": [-42.20627451267306, -37.87025816420081]}}, {"type": "Feature", "properties": {"norad_id": 67073, "name": "RAISE-4", "group": "last-30-days", "lat": 20.028054648340703, "lon": -29.15045562756719, "alt_km": 547.228000179477, "timestamp": "2025-12-26T22:28:04.501168+00:00", "meta": {"OBJECT_NAME": "RAISE-4", "OBJECT_ID": "2025-297B", "EPOCH": "2025-12-26T15:23:14.412192", "MEAN_MOTION": 15.07246496, "ECCENTRICITY": 0.00116773, "INCLINATION": 97.4853, "RA_OF_ASC_NODE": 147.8154, "ARG_OF_PERICENTER": 268.6462, "MEAN_ANOMALY": 91.3428, "EPHEMERIS_TYPE": 0, "CLASSIFICATION_TYPE": "U", "NORAD_CAT_ID": 67073, "ELEMENT_SET_NO": 999, "REV_AT_EPOCH": 188, "BSTAR": 0.00039550952, "MEAN_MOTION_DOT": 5.91e-05, "MEAN_MOTION_DDOT": 0}, "tle": {"line1": "1 67073U 25297B   25360.64113903  .00005910  00000+0  39551-3 0  9991", "line2": "2 67073  97.4853 147.8154 0011677 268.6462  91.3428 15.07246496  1885"}}, "geometry": {"type": "Point", "coordinates": [-29.15045562756719, 20.028054648340703]}}, {"type": "Feature", "properties": {"norad_id": 67074, "name": "ELECTRON KICK STAGE R/B", "group": "last-30-days", "lat": -71.9086476784266, "lon": 172.81607157401197, "alt_km": 343.90253573490827, "timestamp": "2025-12-26T22:28:04.501179+00:00", "meta": {"OBJECT_NAME": "ELECTRON KICK STAGE R/B", "OBJECT_ID": "2025-297C", "EPOCH": "2025-12-26T07:23:54.373344", "MEAN_MOTION": 15.60623913, "ECCENTRICITY": 0.0187402, "INCLINATION": 97.4814, "RA_OF_ASC_NODE": 148.4327, "ARG_OF_PERICENTER": 220.2735, "MEAN_ANOMALY": 138.4516, "EPHEMERIS_TYPE": 0, "CLASSIFICATION_TYPE": "U", "NORAD_CAT_ID": 67074, "ELEMENT_SET_NO": 999, "REV_AT_EPOCH": 189, "BSTAR": 0.0018067, "MEAN_MOTION_DOT": 0.00363072, "MEAN_MOTION_DDOT": 3.8168e-05}, "tle": {"line1": "1 67074U 25297C   25360.30826821  .00363072  38168-4  18067-2 0  9990", "line2": "2 67074  97.4814 148.4327 0187402 220.2735 138.4516 15.60623913  1893"}}, "geometry": {"type": "Point", "coordinates": [172.81607157401197, -71.9086476784266]}}, {"type": "Feature", "properties": {"norad_id": 67075, "name": "STARLINK-36230", "group": "last-30-days", "lat": 31.021823134124677, "lon": 16.961788399014942, "alt_km": 345.44547766295636, "timestamp": "2025-12-26T22:28:04.501189+00:00", "meta": {"OBJECT_NAME": "STARLINK-36230", "OBJECT_ID": "2025-298A", "EPOCH": "2025-12-26T18:00:02.998944", "MEAN_MOTION": 15.75134086, "ECCENTRICITY": 0.0003496, "INCLINATION": 69.9987, "RA_OF_ASC_NODE": 210.1424, "ARG_OF_PERICENTER": 271.3701, "MEAN_ANOMALY": 260.4323, "EPHEMERIS_TYPE": 0, "CLASSIFICATION_TYPE": "U", "NORAD_CAT_ID": 67075, "ELEMENT_SET_NO": 999, "REV_AT_EPOCH": 322, "BSTAR": -0.013268, "MEAN_MOTION_DOT": -0.0175383, "MEAN_MOTION_DDOT": 0}, "tle": {"line1": "1 67075U 25298A   25360.75003471 -.01753830  00000+0 -13268-1 0  9993", "line2": "2 67075  69.9987 210.1424 0003496 271.3701 260.4323 15.75134086  3229"}}, "geometry": {"type": "Point", "coordinates": [16.961788399014942, 31.021823134124677]}}, {"type": "Feature", "properties": {"norad_id": 67076, "name": "STARLINK-36240", "group": "last-30-days", "lat": 29.245684508777604, "lon": 17.844470560671468, "alt_km": 345.63562683369855, "timestamp": "2025-12-26T22:28:04.501200+00:00", "meta": {"OBJECT_NAME": "STARLINK-36240", "OBJECT_ID": "2025-298B", "EPOCH": "2025-12-26T18:00:02.998944", "MEAN_MOTION": 15.75133869, "ECCENTRICITY": 0.0003355, "INCLINATION": 69.9986, "RA_OF_ASC_NODE": 210.14, "ARG_OF_PERICENTER": 271.8758, "MEAN_ANOMALY": 261.8576, "EPHEMERIS_TYPE": 0, "CLASSIFICATION_TYPE": "U", "NORAD_CAT_ID": 67076, "ELEMENT_SET_NO": 999, "REV_AT_EPOCH": 322, "BSTAR": -0.013269, "MEAN_MOTION_DOT": -0.01753774, "MEAN_MOTION_DDOT": 0}, "tle": {"line1": "1 67076U 25298B   25360.75003471 -.01753774  00000+0 -13269-1 0  9992", "line2": "2 67076  69.9986 210.1400 0003355 271.8758 261.8576 15.75133869  3227"}}, "geometry": {"type": "Point", "coordinates": [17.844470560671468, 29.245684508777604]}}, {"type": "Feature", "properties": {"norad_id": 67077, "name": "STARLINK-36243", "group": "last-30-days", "lat": 27.25549514780682, "lon": 18.795618355995682, "alt_km": 345.9475165285894, "timestamp": "2025-12-26T22:28:04.501212+00:00", "meta": {"OBJECT_NAME": "STARLINK-36243", "OBJECT_ID": "2025-298C", "EPOCH": "2025-12-26T18:00:02.998944", "MEAN_MOTION": 15.7512281, "ECCENTRICITY": 0.0003484, "INCLINATION": 69.9985, "RA_OF_ASC_NODE": 210.1383, "ARG_OF_PERICENTER": 271.3278, "MEAN_ANOMALY": 264.5728, "EPHEMERIS_TYPE": 0, "CLASSIFICATION_TYPE": "U", "NORAD_CAT_ID": 67077, "ELEMENT_SET_NO": 999, "REV_AT_EPOCH": 322, "BSTAR": -0.013284, "MEAN_MOTION_DOT": -0.01754929, "MEAN_MOTION_DDOT": 0}, "tle": {"line1": "1 67077U 25298C   25360.75003471 -.01754929  00000+0 -13284-1 0  9993", "line2": "2 67077  69.9985 210.1383 0003484 271.3278 264.5728 15.75122810  3225"}}, "geometry": {"type": "Point", "coordinates": [18.795618355995682, 27.25549514780682]}}, {"type": "Feature", "properties": {"norad_id": 67078, "name": "STARLINK-36236", "group": "last-30-days", "lat": 25.562429701862946, "lon": 19.57419879951139, "alt_km": 346.1922016253948, "timestamp": "2025-12-26T22:28:04.501223+00:00", "meta": {"OBJECT_NAME": "STARLINK-36236", "OBJECT_ID": "2025-298D", "EPOCH": "2025-12-26T18:00:02.998944", "MEAN_MOTION": 15.75127673, "ECCENTRICITY": 0.0003522, "INCLINATION": 69.9986, "RA_OF_ASC_NODE": 210.135, "ARG_OF_PERICENTER": 272.235, "MEAN_ANOMALY": 265.4933, "EPHEMERIS_TYPE": 0, "CLASSIFICATION_TYPE": "U", "NORAD_CAT_ID": 67078, "ELEMENT_SET_NO": 999, "REV_AT_EPOCH": 322, "BSTAR": -0.013289, "MEAN_MOTION_DOT": -0.01755792, "MEAN_MOTION_DDOT": 0}, "tle": {"line1": "1 67078U 25298D   25360.75003471 -.01755792  00000+0 -13289-1 0  9998", "line2": "2 67078  69.9986 210.1350 0003522 272.2350 265.4933 15.75127673  3225"}}, "geometry": {"type": "Point", "coordinates": [19.57419879951139, 25.562429701862946]}}, {"type": "Feature", "properties": {"norad_id": 67079, "name": "STARLINK-36159", "group": "last-30-days", "lat": 23.54996128033338, "lon": 20.471322941537796, "alt_km": 346.47985796991816, "timestamp": "2025-12-26T22:28:04.501233+00:00", "meta": {"OBJECT_NAME": "STARLINK-36159", "OBJECT_ID": "2025-298E", "EPOCH": "2025-12-26T18:00:02.998944", "MEAN_MOTION": 15.75117357, "ECCENTRICITY": 0.0003541, "INCLINATION": 69.9986, "RA_OF_ASC_NODE": 210.1333, "ARG_OF_PERICENTER": 272.1453, "MEAN_ANOMALY": 267.7615, "EPHEMERIS_TYPE": 0, "CLASSIFICATION_TYPE": "U", "NORAD_CAT_ID": 67079, "ELEMENT_SET_NO": 999, "REV_AT_EPOCH": 322, "BSTAR": -0.013339, "MEAN_MOTION_DOT": -0.01760958, "MEAN_MOTION_DDOT": 0}, "tle": {"line1": "1 67079U 25298E   25360.75003471 -.01760958  00000+0 -13339-1 0  9995", "line2": "2 67079  69.9986 210.1333 0003541 272.1453 267.7615 15.75117357  3221"}}, "geometry": {"type": "Point", "coordinates": [20.471322941537796, 23.54996128033338]}}, {"type": "Feature", "properties": {"norad_id": 67080, "name": "STARLINK-36158", "group": "last-30-days", "lat": 21.613427667883524, "lon": 21.30564317490124, "alt_km": 346.68445225771757, "timestamp": "2025-12-26T22:28:04.501243+00:00", "meta": {"OBJECT_NAME": "STARLINK-36158", "OBJECT_ID": "2025-298F", "EPOCH": "2025-12-26T18:00:02.998944", "MEAN_MOTION": 15.75108524, "ECCENTRICITY": 0.0003501, "INCLINATION": 69.9986, "RA_OF_ASC_NODE": 210.1304, "ARG_OF_PERICENTER": 271.0866, "MEAN_ANOMALY": 270.9091, "EPHEMERIS_TYPE": 0, "CLASSIFICATION_TYPE": "U", "NORAD_CAT_ID": 67080, "ELEMENT_SET_NO": 999, "REV_AT_EPOCH": 317, "BSTAR": -0.013314, "MEAN_MOTION_DOT": -0.01757377, "MEAN_MOTION_DDOT": 0}, "tle": {"line1": "1 67080U 25298F   25360.75003471 -.01757377  00000+0 -13314-1 0  9991", "line2": "2 67080  69.9986 210.1304 0003501 271.0866 270.9091 15.75108524  3177"}}, "geometry": {"type": "Point", "coordinates": [21.30564317490124, 21.613427667883524]}}]}